start=new Date('2021-10-29T00:00:00.000Z').valueOf();
sats=[{"MEAN_ANOMALY":"280.2848","LAUNCH_DATE":"2020-02-17","BSTAR":"0.00005630500000","EPOCH":"2021-10-28T11:38:52.505088","PERIOD":"95.592","SEMIMAJOR_AXIS":"6925.362","APOAPSIS":"548.123","INCLINATION":"53.0545","RCS_SIZE":"LARGE","PERIAPSIS":"546.332","CENTER_NAME":"EARTH","TIME_SYSTEM":"UTC","MEAN_MOTION":"15.06395466","NORAD_CAT_ID":"45190","OBJECT_NAME":"STARLINK-1234","COUNTRY_CODE":"US","ELEMENT_SET_NO":"999","EPHEMERIS_TYPE":"0","MEAN_MOTION_DOT":"0.00000557","REV_AT_EPOCH":"9516","OBJECT_ID":"2020-012N","MEAN_MOTION_DDOT":"0.0000000000000","TLE_LINE2":"2 45190  53.0545 318.7965 0001293  79.8287 280.2848 15.06395466 95166","RA_OF_ASC_NODE":"318.7965","ECCENTRICITY":"0.00012930","DECAY_DATE":null,"GP_ID":"188365497","TLE_LINE1":"1 45190U 20012N   21301.48532992  .00000557  00000-0  56305-4 0  9993","REF_FRAME":"TEME","OBJECT_TYPE":"PAYLOAD","CLASSIFICATION_TYPE":"U","FILE":"3189402","ARG_OF_PERICENTER":"79.8287","MEAN_ELEMENT_THEORY":"SGP4","SITE":"AFETR"},{"MEAN_MOTION_DOT":"-0.00000865","EPHEMERIS_TYPE":"0","ECCENTRICITY":"0.00012240","DECAY_DATE":null,"OBJECT_ID":"2020-012P","TLE_LINE2":"2 45191  53.0546 358.8515 0001224  82.3076 277.8052 15.06393210 91916","MEAN_MOTION_DDOT":"0.0000000000000","RA_OF_ASC_NODE":"358.8515","REV_AT_EPOCH":"9191","FILE":"3189402","REF_FRAME":"TEME","OBJECT_TYPE":"PAYLOAD","CLASSIFICATION_TYPE":"U","TLE_LINE1":"1 45191U 20012P   21301.47427718 -.00000865  00000-0 -39204-4 0  9995","GP_ID":"188365744","SITE":"AFETR","MEAN_ELEMENT_THEORY":"SGP4","ARG_OF_PERICENTER":"82.3076","LAUNCH_DATE":"2020-02-17","MEAN_ANOMALY":"277.8052","SEMIMAJOR_AXIS":"6925.369","PERIOD":"95.593","EPOCH":"2021-10-28T11:22:57.548352","BSTAR":"-0.00003920400000","MEAN_MOTION":"15.06393210","TIME_SYSTEM":"UTC","RCS_SIZE":"LARGE","PERIAPSIS":"546.387","CENTER_NAME":"EARTH","APOAPSIS":"548.082","INCLINATION":"53.0546","COUNTRY_CODE":"US","ELEMENT_SET_NO":"999","NORAD_CAT_ID":"45191","OBJECT_NAME":"STARLINK-1236"},{"MEAN_MOTION":"15.06397419","TIME_SYSTEM":"UTC","CENTER_NAME":"EARTH","PERIAPSIS":"546.568","RCS_SIZE":"LARGE","INCLINATION":"53.0547","APOAPSIS":"547.875","ELEMENT_SET_NO":"999","COUNTRY_CODE":"US","OBJECT_NAME":"STARLINK-1237","NORAD_CAT_ID":"45192","LAUNCH_DATE":"2020-02-17","MEAN_ANOMALY":"275.2891","SEMIMAJOR_AXIS":"6925.356","PERIOD":"95.592","EPOCH":"2021-10-28T10:45:47.833920","BSTAR":"-0.00005059200000","FILE":"3189111","CLASSIFICATION_TYPE":"U","OBJECT_TYPE":"PAYLOAD","REF_FRAME":"TEME","GP_ID":"188337204","TLE_LINE1":"1 45192U 20012Q   21301.44847030 -.00001035  00000-0 -50592-4 0  9999","SITE":"AFETR","MEAN_ELEMENT_THEORY":"SGP4","ARG_OF_PERICENTER":"84.8205","MEAN_MOTION_DOT":"-0.00001035","EPHEMERIS_TYPE":"0","DECAY_DATE":null,"ECCENTRICITY":"0.00009430","RA_OF_ASC_NODE":"358.9672","TLE_LINE2":"2 45192  53.0547 358.9672 0000943  84.8205 275.2891 15.06397419 94709","MEAN_MOTION_DDOT":"0.0000000000000","OBJECT_ID":"2020-012Q","REV_AT_EPOCH":"9470"},{"BSTAR":"-0.00004600100000","SEMIMAJOR_AXIS":"6925.355","PERIOD":"95.592","EPOCH":"2021-10-28T10:29:52.468512","MEAN_ANOMALY":"278.9390","LAUNCH_DATE":"2020-02-17","OBJECT_NAME":"STARLINK-1239","NORAD_CAT_ID":"45193","ELEMENT_SET_NO":"999","COUNTRY_CODE":"US","CENTER_NAME":"EARTH","PERIAPSIS":"546.393","RCS_SIZE":"LARGE","INCLINATION":"53.0558","APOAPSIS":"548.047","MEAN_MOTION":"15.06398008","TIME_SYSTEM":"UTC","MEAN_MOTION_DDOT":"0.0000000000000","TLE_LINE2":"2 45193  53.0558 359.0071 0001194  81.1735 278.9390 15.06398008 94646","RA_OF_ASC_NODE":"359.0071","OBJECT_ID":"2020-012R","REV_AT_EPOCH":"9464","DECAY_DATE":null,"ECCENTRICITY":"0.00011940","EPHEMERIS_TYPE":"0","MEAN_MOTION_DOT":"-0.00000966","ARG_OF_PERICENTER":"81.1735","SITE":"AFETR","MEAN_ELEMENT_THEORY":"SGP4","GP_ID":"188364746","TLE_LINE1":"1 45193U 20012R   21301.43741283 -.00000966  00000-0 -46001-4 0  9994","FILE":"3189402","CLASSIFICATION_TYPE":"U","REF_FRAME":"TEME","OBJECT_TYPE":"PAYLOAD"},{"MEAN_ANOMALY":"261.5632","LAUNCH_DATE":"2020-02-17","BSTAR":"-0.00002832700000","PERIOD":"95.592","EPOCH":"2021-10-28T10:35:10.481856","SEMIMAJOR_AXIS":"6925.340","APOAPSIS":"548.024","INCLINATION":"53.0563","RCS_SIZE":"LARGE","PERIAPSIS":"546.386","CENTER_NAME":"EARTH","TIME_SYSTEM":"UTC","MEAN_MOTION":"15.06402737","NORAD_CAT_ID":"45194","OBJECT_NAME":"STARLINK-1240","COUNTRY_CODE":"US","ELEMENT_SET_NO":"999","EPHEMERIS_TYPE":"0","MEAN_MOTION_DOT":"-0.00000703","REV_AT_EPOCH":"9459","OBJECT_ID":"2020-012S","TLE_LINE2":"2 45194  53.0563 358.9933 0001183  98.5491 261.5632 15.06402737 94593","RA_OF_ASC_NODE":"358.9933","MEAN_MOTION_DDOT":"0.0000000000000","ECCENTRICITY":"0.00011830","DECAY_DATE":null,"GP_ID":"188365998","TLE_LINE1":"1 45194U 20012S   21301.44109354 -.00000703  00000-0 -28327-4 0  9993","REF_FRAME":"TEME","OBJECT_TYPE":"PAYLOAD","CLASSIFICATION_TYPE":"U","FILE":"3189402","ARG_OF_PERICENTER":"98.5491","MEAN_ELEMENT_THEORY":"SGP4","SITE":"AFETR"},{"ELEMENT_SET_NO":"999","COUNTRY_CODE":"US","OBJECT_NAME":"STARLINK-1241","NORAD_CAT_ID":"45195","MEAN_MOTION":"15.06396358","TIME_SYSTEM":"UTC","CENTER_NAME":"EARTH","PERIAPSIS":"546.435","RCS_SIZE":"LARGE","INCLINATION":"53.0545","APOAPSIS":"548.014","SEMIMAJOR_AXIS":"6925.360","PERIOD":"95.592","EPOCH":"2021-10-28T12:00:06.352128","BSTAR":"0.00014717000000","LAUNCH_DATE":"2020-02-17","MEAN_ANOMALY":"273.2641","SITE":"AFETR","MEAN_ELEMENT_THEORY":"SGP4","ARG_OF_PERICENTER":"86.8478","FILE":"3189402","CLASSIFICATION_TYPE":"U","OBJECT_TYPE":"PAYLOAD","REF_FRAME":"TEME","GP_ID":"188366245","TLE_LINE1":"1 45195U 20012T   21301.50007352  .00001911  00000-0  14717-3 0  9993","DECAY_DATE":null,"ECCENTRICITY":"0.00011400","TLE_LINE2":"2 45195  53.0545 358.7297 0001140  86.8478 273.2641 15.06396358 94707","RA_OF_ASC_NODE":"358.7297","MEAN_MOTION_DDOT":"0.0000000000000","OBJECT_ID":"2020-012T","REV_AT_EPOCH":"9470","MEAN_MOTION_DOT":"0.00001911","EPHEMERIS_TYPE":"0"},{"MEAN_ELEMENT_THEORY":"SGP4","SITE":"AFETR","ARG_OF_PERICENTER":"84.3851","CLASSIFICATION_TYPE":"U","REF_FRAME":"TEME","OBJECT_TYPE":"PAYLOAD","FILE":"3189402","GP_ID":"188364997","TLE_LINE1":"1 45196U 20012U   21301.48901474  .00000594  00000-0  58759-4 0  9990","DECAY_DATE":null,"ECCENTRICITY":"0.00011270","REV_AT_EPOCH":"9475","RA_OF_ASC_NODE":"358.7747","TLE_LINE2":"2 45196  53.0548 358.7747 0001127  84.3851 275.7267 15.06394691 94758","MEAN_MOTION_DDOT":"0.0000000000000","OBJECT_ID":"2020-012U","MEAN_MOTION_DOT":"0.00000594","EPHEMERIS_TYPE":"0","ELEMENT_SET_NO":"999","COUNTRY_CODE":"US","OBJECT_NAME":"STARLINK-1244","NORAD_CAT_ID":"45196","TIME_SYSTEM":"UTC","MEAN_MOTION":"15.06394691","INCLINATION":"53.0548","APOAPSIS":"548.010","PERIAPSIS":"546.449","CENTER_NAME":"EARTH","RCS_SIZE":"LARGE","EPOCH":"2021-10-28T11:44:10.873536","PERIOD":"95.592","SEMIMAJOR_AXIS":"6925.365","BSTAR":"0.00005875900000","LAUNCH_DATE":"2020-02-17","MEAN_ANOMALY":"275.7267"},{"MEAN_ELEMENT_THEORY":"SGP4","SITE":"AFETR","ARG_OF_PERICENTER":"86.3887","REF_FRAME":"TEME","OBJECT_TYPE":"PAYLOAD","CLASSIFICATION_TYPE":"U","FILE":"3189402","GP_ID":"188365247","TLE_LINE1":"1 45197U 20012V   21301.47795679  .00000735  00000-0  68200-4 0  9997","ECCENTRICITY":"0.00009620","DECAY_DATE":null,"REV_AT_EPOCH":"9467","OBJECT_ID":"2020-012V","RA_OF_ASC_NODE":"358.8228","TLE_LINE2":"2 45197  53.0560 358.8228 0000962  86.3887 273.7211 15.06402222 94673","MEAN_MOTION_DDOT":"0.0000000000000","MEAN_MOTION_DOT":"0.00000735","EPHEMERIS_TYPE":"0","COUNTRY_CODE":"US","ELEMENT_SET_NO":"999","NORAD_CAT_ID":"45197","OBJECT_NAME":"STARLINK-1269","TIME_SYSTEM":"UTC","MEAN_MOTION":"15.06402222","APOAPSIS":"547.873","INCLINATION":"53.0560","RCS_SIZE":"LARGE","CENTER_NAME":"EARTH","PERIAPSIS":"546.541","PERIOD":"95.592","EPOCH":"2021-10-28T11:28:15.466656","SEMIMAJOR_AXIS":"6925.342","BSTAR":"0.00006820000000","LAUNCH_DATE":"2020-02-17","MEAN_ANOMALY":"273.7211"},{"MEAN_ANOMALY":"287.0417","LAUNCH_DATE":"2020-02-17","BSTAR":"-0.00006727100000","PERIOD":"95.592","EPOCH":"2021-10-28T09:39:27.651168","SEMIMAJOR_AXIS":"6925.347","APOAPSIS":"548.064","INCLINATION":"53.0544","RCS_SIZE":"LARGE","CENTER_NAME":"EARTH","PERIAPSIS":"546.360","TIME_SYSTEM":"UTC","MEAN_MOTION":"15.06400467","NORAD_CAT_ID":"45198","OBJECT_NAME":"STARLINK-1154","COUNTRY_CODE":"US","ELEMENT_SET_NO":"999","EPHEMERIS_TYPE":"0","MEAN_MOTION_DOT":"-0.00001283","REV_AT_EPOCH":"9491","OBJECT_ID":"2020-012W","TLE_LINE2":"2 45198  53.0544 339.1765 0001230  73.0706 287.0417 15.06400467 94918","MEAN_MOTION_DDOT":"0.0000000000000","RA_OF_ASC_NODE":"339.1765","ECCENTRICITY":"0.00012300","DECAY_DATE":null,"TLE_LINE1":"1 45198U 20012W   21301.40240337 -.00001283  00000-0 -67271-4 0  9995","GP_ID":"188336203","REF_FRAME":"TEME","OBJECT_TYPE":"PAYLOAD","CLASSIFICATION_TYPE":"U","FILE":"3189111","ARG_OF_PERICENTER":"73.0706","MEAN_ELEMENT_THEORY":"SGP4","SITE":"AFETR"},{"TIME_SYSTEM":"UTC","MEAN_MOTION":"15.06397227","APOAPSIS":"548.197","INCLINATION":"53.0535","RCS_SIZE":"LARGE","CENTER_NAME":"EARTH","PERIAPSIS":"546.247","COUNTRY_CODE":"US","ELEMENT_SET_NO":"999","NORAD_CAT_ID":"45199","OBJECT_NAME":"STARLINK-1197","LAUNCH_DATE":"2020-02-17","MEAN_ANOMALY":"283.2022","PERIOD":"95.592","EPOCH":"2021-10-28T11:20:17.735136","SEMIMAJOR_AXIS":"6925.357","BSTAR":"-0.00005763100000","OBJECT_TYPE":"PAYLOAD","REF_FRAME":"TEME","CLASSIFICATION_TYPE":"U","FILE":"3189402","TLE_LINE1":"1 45199U 20012X   21301.47242749 -.00001140  00000-0 -57631-4 0  9993","GP_ID":"188365745","MEAN_ELEMENT_THEORY":"SGP4","SITE":"AFETR","ARG_OF_PERICENTER":"76.9124","MEAN_MOTION_DOT":"-0.00001140","EPHEMERIS_TYPE":"0","ECCENTRICITY":"0.00014080","DECAY_DATE":null,"REV_AT_EPOCH":"9498","OBJECT_ID":"2020-012X","RA_OF_ASC_NODE":"338.8617","TLE_LINE2":"2 45199  53.0535 338.8617 0001408  76.9124 283.2022 15.06397227 94980","MEAN_MOTION_DDOT":"0.0000000000000"}];
